[{"OBJECT_NAME":"STARLINK-1351","OBJECT_ID":"2020-035AS","EPOCH":"2026-03-09T03:21:10.846368","MEAN_MOTION":15.5224201,"ECCENTRICITY":0.00035916,"INCLINATION":53.0537,"RA_OF_ASC_NODE":24.2744,"ARG_OF_PERICENTER":121.7896,"MEAN_ANOMALY":238.3464,"EPHEMERIS_TYPE":0,"CLASSIFICATION_TYPE":"U","NORAD_CAT_ID":45697,"ELEMENT_SET_NO":999,"REV_AT_EPOCH":31928,"BSTAR":0.0017671716,"MEAN_MOTION_DOT":0.00110196,"MEAN_MOTION_DDOT":0},{"OBJECT_NAME":"STARLINK-1640","OBJECT_ID":"2020-057BJ","EPOCH":"2026-03-10T00:00:02.999808","MEAN_MOTION":15.53857916,"ECCENTRICITY":0.00082651,"INCLINATION":53.0515,"RA_OF_ASC_NODE":297.5988,"ARG_OF_PERICENTER":141.807,"MEAN_ANOMALY":35.0921,"EPHEMERIS_TYPE":0,"CLASSIFICATION_TYPE":"U","NORAD_CAT_ID":46173,"ELEMENT_SET_NO":999,"REV_AT_EPOCH":581,"BSTAR":0.0024555453,"MEAN_MOTION_DOT":0.00163818,"MEAN_MOTION_DDOT":0}]
